ONEWEB-0371             
1 49297U 21090U   26153.32976388  .00000017  00000+0  94475-5 0  9997
2 49297  87.9165 307.9266 0001731  97.5856 262.5473 13.19727513224493
ONEWEB-0372             
1 49298U 21090V   26153.31384058  .00000045  00000+0  77814-4 0  9992
2 49298  87.9188 277.4064 0001856  99.4079 260.7264 13.20770040227870
ONEWEB-0373             
1 49299U 21090W   26153.33923586  .00000090  00000+0  18872-3 0  9998
2 49299  87.9182 277.4017 0002001 101.3461 258.7897 13.20770658229061
ONEWEB-0374             
1 49300U 21090X   26152.43846943  .00000035  00000+0  60842-4 0  9996
2 49300  87.8953 292.8369 0002391  91.7272 268.4131 13.14502251225491
ONEWEB-0375             
1 49301U 21090Y   26153.70624641 -.00000098  00000+0 -27349-3 0  9992
2 49301  87.9186 277.3199 0002414  92.8354 267.3056 13.20772078228613
ONEWEB-0376             
1 49302U 21090Z   26153.32818264  .00000048  00000+0  86712-4 0  9990
2 49302  87.9167 307.9266 0001615  92.0179 268.1138 13.19724237224491
ONEWEB-0377             
1 49303U 21090AA  26153.31413698  .00000062  00000+0  12013-3 0  9990
2 49303  87.9186 277.4000 0002157 101.7984 258.3391 13.20771881228556
ONEWEB-0378             
1 49304U 21090AB  26153.33431793  .00000083  00000+0  17187-3 0  9999
2 49304  87.9180 277.4014 0002014  97.4839 262.6523 13.20774293227822
ONEWEB-0379             
1 49305U 21090AC  26152.43370243 -.00000076  00000+0 -23871-3 0  9993
2 49305  87.8951 292.8484 0001917  95.5829 264.5520 13.14501727225491
ONEWEB-0380             
1 49306U 21090AD  26153.32503448  .00000003  00000+0 -25432-4 0  9993
2 49306  87.9156 307.9336 0002021  98.7106 261.4256 13.19724882224466
ONEWEB-0381             
1 49307U 21090AE  26153.31063190  .00000035  00000+0  53477-4 0  9992
2 49307  87.9188 277.4051 0002171  93.9263 266.2118 13.20772310227862
ONEWEB-0382             
1 49308U 21090AF  26153.29713560  .00000108  00000+0  23257-3 0  9996
2 49308  87.9183 277.4025 0002156  92.8265 267.3115 13.20772607227859
ONEWEB-0383             
1 49309U 21090AG  26153.34076639 -.00000167  00000+0 -48542-3 0  9993
2 49309  87.8957 292.6587 0001900  89.8173 270.3174 13.14504718225643
ONEWEB-0384             
1 49310U 21090AH  26153.81653141  .00000013  00000+0 -38028-6 0  9996
2 49310  87.9187 277.3428 0002217  89.3428 270.7959 13.20811620227934
ONEWEB-0385             
1 49311U 21090AJ  26153.29043044  .00000093  00000+0  19578-3 0  9997
2 49311  87.9184 277.4092 0002065  96.3492 263.7877 13.20771326227838
ONEWEB-0386             
1 49312U 21090AK  26153.30726178  .00000062  00000+0  12012-3 0  9998
2 49312  87.9191 277.3960 0002054  92.8924 267.2444 13.20772354227852
