[{"OBJECT_NAME":"ONEWEB-0371","OBJECT_ID":"2021-090U","EPOCH":"2026-06-02T07:54:51.599232","MEAN_MOTION":13.19727513,"ECCENTRICITY":0.0001731,"INCLINATION":87.9165,"RA_OF_ASC_NODE":307.9266,"ARG_OF_PERICENTER":97.5856,"MEAN_ANOMALY":262.5473,"EPHEMERIS_TYPE":0,"CLASSIFICATION_TYPE":"U","NORAD_CAT_ID":49297,"ELEMENT_SET_NO":999,"REV_AT_EPOCH":22449,"BSTAR":9.4475e-06,"MEAN_MOTION_DOT":1.7e-07,"MEAN_MOTION_DDOT":0.0},{"OBJECT_NAME":"ONEWEB-0372","OBJECT_ID":"2021-090V","EPOCH":"2026-06-02T07:31:55.826112","MEAN_MOTION":13.2077004,"ECCENTRICITY":0.0001856,"INCLINATION":87.9188,"RA_OF_ASC_NODE":277.4064,"ARG_OF_PERICENTER":99.4079,"MEAN_ANOMALY":260.7264,"EPHEMERIS_TYPE":0,"CLASSIFICATION_TYPE":"U","NORAD_CAT_ID":49298,"ELEMENT_SET_NO":999,"REV_AT_EPOCH":22787,"BSTAR":7.781400000000001e-05,"MEAN_MOTION_DOT":4.5e-07,"MEAN_MOTION_DDOT":0.0},{"OBJECT_NAME":"ONEWEB-0373","OBJECT_ID":"2021-090W","EPOCH":"2026-06-02T08:08:29.978304","MEAN_MOTION":13.20770658,"ECCENTRICITY":0.0002001,"INCLINATION":87.9182,"RA_OF_ASC_NODE":277.4017,"ARG_OF_PERICENTER":101.3461,"MEAN_ANOMALY":258.7897,"EPHEMERIS_TYPE":0,"CLASSIFICATION_TYPE":"U","NORAD_CAT_ID":49299,"ELEMENT_SET_NO":999,"REV_AT_EPOCH":22906,"BSTAR":0.00018872,"MEAN_MOTION_DOT":9e-07,"MEAN_MOTION_DDOT":0.0},{"OBJECT_NAME":"ONEWEB-0374","OBJECT_ID":"2021-090X","EPOCH":"2026-06-01T10:31:23.758752","MEAN_MOTION":13.14502251,"ECCENTRICITY":0.0002391,"INCLINATION":87.8953,"RA_OF_ASC_NODE":292.8369,"ARG_OF_PERICENTER":91.7272,"MEAN_ANOMALY":268.4131,"EPHEMERIS_TYPE":0,"CLASSIFICATION_TYPE":"U","NORAD_CAT_ID":49300,"ELEMENT_SET_NO":999,"REV_AT_EPOCH":22549,"BSTAR":6.0842e-05,"MEAN_MOTION_DOT":3.5e-07,"MEAN_MOTION_DDOT":0.0},{"OBJECT_NAME":"ONEWEB-0375","OBJECT_ID":"2021-090Y","EPOCH":"2026-06-02T16:56:59.689824","MEAN_MOTION":13.20772078,"ECCENTRICITY":0.0002414,"INCLINATION":87.9186,"RA_OF_ASC_NODE":277.3199,"ARG_OF_PERICENTER":92.8354,"MEAN_ANOMALY":267.3056,"EPHEMERIS_TYPE":0,"CLASSIFICATION_TYPE":"U","NORAD_CAT_ID":49301,"ELEMENT_SET_NO":999,"REV_AT_EPOCH":22861,"BSTAR":-0.00027349000000000004,"MEAN_MOTION_DOT":-9.8e-07,"MEAN_MOTION_DDOT":0.0},{"OBJECT_NAME":"ONEWEB-0376","OBJECT_ID":"2021-090Z","EPOCH":"2026-06-02T07:52:34.980096","MEAN_MOTION":13.19724237,"ECCENTRICITY":0.0001615,"INCLINATION":87.9167,"RA_OF_ASC_NODE":307.9266,"ARG_OF_PERICENTER":92.0179,"MEAN_ANOMALY":268.1138,"EPHEMERIS_TYPE":0,"CLASSIFICATION_TYPE":"U","NORAD_CAT_ID":49302,"ELEMENT_SET_NO":999,"REV_AT_EPOCH":22449,"BSTAR":8.6712e-05,"MEAN_MOTION_DOT":4.8e-07,"MEAN_MOTION_DDOT":0.0},{"OBJECT_NAME":"ONEWEB-0377","OBJECT_ID":"2021-090AA","EPOCH":"2026-06-02T07:32:21.435072","MEAN_MOTION":13.20771881,"ECCENTRICITY":0.0002157,"INCLINATION":87.9186,"RA_OF_ASC_NODE":277.4,"ARG_OF_PERICENTER":101.7984,"MEAN_ANOMALY":258.3391,"EPHEMERIS_TYPE":0,"CLASSIFICATION_TYPE":"U","NORAD_CAT_ID":49303,"ELEMENT_SET_NO":999,"REV_AT_EPOCH":22855,"BSTAR":0.00012013,"MEAN_MOTION_DOT":6.2e-07,"MEAN_MOTION_DDOT":0.0},{"OBJECT_NAME":"ONEWEB-0378","OBJECT_ID":"2021-090AB","EPOCH":"2026-06-02T08:01:25.069152","MEAN_MOTION":13.20774293,"ECCENTRICITY":0.0002014,"INCLINATION":87.918,"RA_OF_ASC_NODE":277.4014,"ARG_OF_PERICENTER":97.4839,"MEAN_ANOMALY":262.6523,"EPHEMERIS_TYPE":0,"CLASSIFICATION_TYPE":"U","NORAD_CAT_ID":49304,"ELEMENT_SET_NO":999,"REV_AT_EPOCH":22782,"BSTAR":0.00017187,"MEAN_MOTION_DOT":8.3e-07,"MEAN_MOTION_DDOT":0.0},{"OBJECT_NAME":"ONEWEB-0379","OBJECT_ID":"2021-090AC","EPOCH":"2026-06-01T10:24:31.889952","MEAN_MOTION":13.14501727,"ECCENTRICITY":0.0001917,"INCLINATION":87.8951,"RA_OF_ASC_NODE":292.8484,"ARG_OF_PERICENTER":95.5829,"MEAN_ANOMALY":264.552,"EPHEMERIS_TYPE":0,"CLASSIFICATION_TYPE":"U","NORAD_CAT_ID":49305,"ELEMENT_SET_NO":999,"REV_AT_EPOCH":22549,"BSTAR":-0.00023871000000000002,"MEAN_MOTION_DOT":-7.6e-07,"MEAN_MOTION_DDOT":0.0},{"OBJECT_NAME":"ONEWEB-0380","OBJECT_ID":"2021-090AD","EPOCH":"2026-06-02T07:48:02.979072","MEAN_MOTION":13.19724882,"ECCENTRICITY":0.0002021,"INCLINATION":87.9156,"RA_OF_ASC_NODE":307.9336,"ARG_OF_PERICENTER":98.7106,"MEAN_ANOMALY":261.4256,"EPHEMERIS_TYPE":0,"CLASSIFICATION_TYPE":"U","NORAD_CAT_ID":49306,"ELEMENT_SET_NO":999,"REV_AT_EPOCH":22446,"BSTAR":-2.5432e-05,"MEAN_MOTION_DOT":3e-08,"MEAN_MOTION_DDOT":0.0},{"OBJECT_NAME":"ONEWEB-0381","OBJECT_ID":"2021-090AE","EPOCH":"2026-06-02T07:27:18.596160","MEAN_MOTION":13.2077231,"ECCENTRICITY":0.0002171,"INCLINATION":87.9188,"RA_OF_ASC_NODE":277.4051,"ARG_OF_PERICENTER":93.9263,"MEAN_ANOMALY":266.2118,"EPHEMERIS_TYPE":0,"CLASSIFICATION_TYPE":"U","NORAD_CAT_ID":49307,"ELEMENT_SET_NO":999,"REV_AT_EPOCH":22786,"BSTAR":5.3476999999999996e-05,"MEAN_MOTION_DOT":3.5e-07,"MEAN_MOTION_DDOT":0.0},{"OBJECT_NAME":"ONEWEB-0382","OBJECT_ID":"2021-090AF","EPOCH":"2026-06-02T07:07:52.515840","MEAN_MOTION":13.20772607,"ECCENTRICITY":0.0002156,"INCLINATION":87.9183,"RA_OF_ASC_NODE":277.4025,"ARG_OF_PERICENTER":92.8265,"MEAN_ANOMALY":267.3115,"EPHEMERIS_TYPE":0,"CLASSIFICATION_TYPE":"U","NORAD_CAT_ID":49308,"ELEMENT_SET_NO":999,"REV_AT_EPOCH":22785,"BSTAR":0.00023257,"MEAN_MOTION_DOT":1.08e-06,"MEAN_MOTION_DDOT":0.0},{"OBJECT_NAME":"ONEWEB-0383","OBJECT_ID":"2021-090AG","EPOCH":"2026-06-02T08:10:42.216096","MEAN_MOTION":13.14504718,"ECCENTRICITY":0.00019,"INCLINATION":87.8957,"RA_OF_ASC_NODE":292.6587,"ARG_OF_PERICENTER":89.8173,"MEAN_ANOMALY":270.3174,"EPHEMERIS_TYPE":0,"CLASSIFICATION_TYPE":"U","NORAD_CAT_ID":49309,"ELEMENT_SET_NO":999,"REV_AT_EPOCH":22564,"BSTAR":-0.00048542,"MEAN_MOTION_DOT":-1.67e-06,"MEAN_MOTION_DDOT":0.0},{"OBJECT_NAME":"ONEWEB-0384","OBJECT_ID":"2021-090AH","EPOCH":"2026-06-02T19:35:48.313824","MEAN_MOTION":13.2081162,"ECCENTRICITY":0.0002217,"INCLINATION":87.9187,"RA_OF_ASC_NODE":277.3428,"ARG_OF_PERICENTER":89.3428,"MEAN_ANOMALY":270.7959,"EPHEMERIS_TYPE":0,"CLASSIFICATION_TYPE":"U","NORAD_CAT_ID":49310,"ELEMENT_SET_NO":999,"REV_AT_EPOCH":22793,"BSTAR":-3.8028e-07,"MEAN_MOTION_DOT":1.3e-07,"MEAN_MOTION_DDOT":0.0},{"OBJECT_NAME":"ONEWEB-0385","OBJECT_ID":"2021-090AJ","EPOCH":"2026-06-02T06:58:13.190016","MEAN_MOTION":13.20771326,"ECCENTRICITY":0.0002065,"INCLINATION":87.9184,"RA_OF_ASC_NODE":277.4092,"ARG_OF_PERICENTER":96.3492,"MEAN_ANOMALY":263.7877,"EPHEMERIS_TYPE":0,"CLASSIFICATION_TYPE":"U","NORAD_CAT_ID":49311,"ELEMENT_SET_NO":999,"REV_AT_EPOCH":22783,"BSTAR":0.00019578000000000003,"MEAN_MOTION_DOT":9.3e-07,"MEAN_MOTION_DDOT":0.0},{"OBJECT_NAME":"ONEWEB-0386","OBJECT_ID":"2021-090AK","EPOCH":"2026-06-02T07:22:27.417792","MEAN_MOTION":13.20772354,"ECCENTRICITY":0.0002054,"INCLINATION":87.9191,"RA_OF_ASC_NODE":277.396,"ARG_OF_PERICENTER":92.8924,"MEAN_ANOMALY":267.2444,"EPHEMERIS_TYPE":0,"CLASSIFICATION_TYPE":"U","NORAD_CAT_ID":49312,"ELEMENT_SET_NO":999,"REV_AT_EPOCH":22785,"BSTAR":0.00012012000000000001,"MEAN_MOTION_DOT":6.2e-07,"MEAN_MOTION_DDOT":0.0}]